{
  "type": "FeatureCollection",
  "features": [
    {
      "type": "Feature",
      "properties": {
        "norad_id": 31439,
        "name": "FENGYUN 1C DEB",
        "group": "fengyun-1c-debris",
        "lat": -7.996491677239435,
        "lon": 2.9354669185396545,
        "alt_km": 994.3510884134384,
        "timestamp": "2025-12-21T22:41:41.742331+00:00",
        "meta_object_name": "FENGYUN 1C DEB",
        "meta_object_id": "1999-025BUB",
        "meta_epoch": "2025-12-16T06:53:28.781952",
        "meta_mean_motion": 13.95585021,
        "meta_eccentricity": 0.01379888,
        "meta_inclination": 98.9165,
        "meta_ra_of_asc_node": 356.1962,
        "meta_arg_of_pericenter": 152.0725,
        "meta_mean_anomaly": 227.5292,
        "meta_ephemeris_type": 0,
        "meta_classification_type": "U",
        "meta_norad_cat_id": 31439,
        "meta_element_set_no": 999,
        "meta_rev_at_epoch": 63282,
        "meta_bstar": 0.00051197114,
        "meta_mean_motion_dot": 7.12e-06,
        "meta_mean_motion_ddot": 0,
        "tle_line1": "1 31439U 99025BUB 25350.28713868  .00000712  00000+0  51197-3 0  9998",
        "tle_line2": "2 31439  98.9165 356.1962 0137988 152.0725 227.5292 13.95585021632829"
      },
      "geometry": {
        "type": "Point",
        "coordinates": [
          2.9354669185396545,
          -7.996491677239435
        ]
      }
    },
    {
      "type": "Feature",
      "properties": {
        "norad_id": 31440,
        "name": "FENGYUN 1C DEB",
        "group": "fengyun-1c-debris",
        "lat": -35.003493395541994,
        "lon": -102.09964007407156,
        "alt_km": 779.0667911600494,
        "timestamp": "2025-12-21T22:41:41.742342+00:00",
        "meta_object_name": "FENGYUN 1C DEB",
        "meta_object_id": "1999-025BUC",
        "meta_epoch": "2025-12-20T23:57:52.458048",
        "meta_mean_motion": 14.36774985,
        "meta_eccentricity": 0.00371554,
        "meta_inclination": 98.7467,
        "meta_ra_of_asc_node": 83.1278,
        "meta_arg_of_pericenter": 316.3908,
        "meta_mean_anomaly": 43.4343,
        "meta_ephemeris_type": 0,
        "meta_classification_type": "U",
        "meta_norad_cat_id": 31440,
        "meta_element_set_no": 999,
        "meta_rev_at_epoch": 96444,
        "meta_bstar": 0.0011949731,
        "meta_mean_motion_dot": 3.51e-05,
        "meta_mean_motion_ddot": 0,
        "tle_line1": "1 31440U 99025BUC 25354.99852382  .00003510  00000+0  11950-2 0  9998",
        "tle_line2": "2 31440  98.7467  83.1278 0037155 316.3908  43.4343 14.36774985964447"
      },
      "geometry": {
        "type": "Point",
        "coordinates": [
          -102.09964007407156,
          -35.003493395541994
        ]
      }
    },
    {
      "type": "Feature",
      "properties": {
        "norad_id": 31441,
        "name": "FENGYUN 1C DEB",
        "group": "fengyun-1c-debris",
        "lat": 53.60544574593962,
        "lon": -152.714513603322,
        "alt_km": 658.3761698623057,
        "timestamp": "2025-12-21T22:41:41.742352+00:00",
        "meta_object_name": "FENGYUN 1C DEB",
        "meta_object_id": "1999-025BUD",
        "meta_epoch": "2025-12-20T20:24:46.910016",
        "meta_mean_motion": 14.75706647,
        "meta_eccentricity": 0.01016008,
        "meta_inclination": 99.3109,
        "meta_ra_of_asc_node": 218.8859,
        "meta_arg_of_pericenter": 310.6714,
        "meta_mean_anomaly": 48.5694,
        "meta_ephemeris_type": 0,
        "meta_classification_type": "U",
        "meta_norad_cat_id": 31441,
        "meta_element_set_no": 999,
        "meta_rev_at_epoch": 64210,
        "meta_bstar": 0.0031315146,
        "meta_mean_motion_dot": 0.00023297,
        "meta_mean_motion_ddot": 0,
        "tle_line1": "1 31441U 99025BUD 25354.85054294  .00023297  00000+0  31315-2 0  9991",
        "tle_line2": "2 31441  99.3109 218.8859 0101600 310.6714  48.5694 14.75706647642103"
      },
      "geometry": {
        "type": "Point",
        "coordinates": [
          -152.714513603322,
          53.60544574593962
        ]
      }
    },
    {
      "type": "Feature",
      "properties": {
        "norad_id": 31442,
        "name": "FENGYUN 1C DEB",
        "group": "fengyun-1c-debris",
        "lat": 65.388122672074,
        "lon": -79.0740525587191,
        "alt_km": 806.3698561279716,
        "timestamp": "2025-12-21T22:41:41.742363+00:00",
        "meta_object_name": "FENGYUN 1C DEB",
        "meta_object_id": "1999-025BUE",
        "meta_epoch": "2025-12-21T12:07:24.943584",
        "meta_mean_motion": 14.33945698,
        "meta_eccentricity": 0.0078669,
        "meta_inclination": 98.5303,
        "meta_ra_of_asc_node": 81.3658,
        "meta_arg_of_pericenter": 346.6775,
        "meta_mean_anomaly": 13.2332,
        "meta_ephemeris_type": 0,
        "meta_classification_type": "U",
        "meta_norad_cat_id": 31442,
        "meta_element_set_no": 999,
        "meta_rev_at_epoch": 97486,
        "meta_bstar": 0.00027837552,
        "meta_mean_motion_dot": 7.6e-06,
        "meta_mean_motion_ddot": 0,
        "tle_line1": "1 31442U 99025BUE 25355.50514981  .00000760  00000+0  27838-3 0  9995",
        "tle_line2": "2 31442  98.5303  81.3658 0078669 346.6775  13.2332 14.33945698974869"
      },
      "geometry": {
        "type": "Point",
        "coordinates": [
          -79.0740525587191,
          65.388122672074
        ]
      }
    },
    {
      "type": "Feature",
      "properties": {
        "norad_id": 31443,
        "name": "FENGYUN 1C DEB",
        "group": "fengyun-1c-debris",
        "lat": -51.85395607343442,
        "lon": 108.18366897159281,
        "alt_km": 810.1664090844097,
        "timestamp": "2025-12-21T22:41:41.742374+00:00",
        "meta_object_name": "FENGYUN 1C DEB",
        "meta_object_id": "1999-025BUF",
        "meta_epoch": "2025-12-20T00:31:43.149216",
        "meta_mean_motion": 14.4875373,
        "meta_eccentricity": 0.01915269,
        "meta_inclination": 99.2114,
        "meta_ra_of_asc_node": 94.1613,
        "meta_arg_of_pericenter": 76.607,
        "meta_mean_anomaly": 285.6392,
        "meta_ephemeris_type": 0,
        "meta_classification_type": "U",
        "meta_norad_cat_id": 31443,
        "meta_element_set_no": 999,
        "meta_rev_at_epoch": 67047,
        "meta_bstar": 0.00066428156,
        "meta_mean_motion_dot": 3.104e-05,
        "meta_mean_motion_ddot": 0,
        "tle_line1": "1 31443U 99025BUF 25354.02202719  .00003104  00000+0  66428-3 0  9998",
        "tle_line2": "2 31443  99.2114  94.1613 0191526  76.6070 285.6392 14.48753730670478"
      },
      "geometry": {
        "type": "Point",
        "coordinates": [
          108.18366897159281,
          -51.85395607343442
        ]
      }
    },
    {
      "type": "Feature",
      "properties": {
        "norad_id": 31444,
        "name": "FENGYUN 1C DEB",
        "group": "fengyun-1c-debris",
        "lat": -78.24537792015533,
        "lon": 69.78137846578811,
        "alt_km": 702.8682810362561,
        "timestamp": "2025-12-21T22:41:41.742383+00:00",
        "meta_object_name": "FENGYUN 1C DEB",
        "meta_object_id": "1999-025BUG",
        "meta_epoch": "2025-12-15T13:34:49.333728",
        "meta_mean_motion": 14.69963952,
        "meta_eccentricity": 0.00627859,
        "meta_inclination": 98.9275,
        "meta_ra_of_asc_node": 291.8692,
        "meta_arg_of_pericenter": 63.9063,
        "meta_mean_anomaly": 296.8584,
        "meta_ephemeris_type": 0,
        "meta_classification_type": "U",
        "meta_norad_cat_id": 31444,
        "meta_element_set_no": 999,
        "meta_rev_at_epoch": 97530,
        "meta_bstar": 0.00094331949,
        "meta_mean_motion_dot": 5.769e-05,
        "meta_mean_motion_ddot": 0,
        "tle_line1": "1 31444U 99025BUG 25349.56584877  .00005769  00000+0  94332-3 0  9994",
        "tle_line2": "2 31444  98.9275 291.8692 0062785  63.9063 296.8584 14.69963952975300"
      },
      "geometry": {
        "type": "Point",
        "coordinates": [
          69.78137846578811,
          -78.24537792015533
        ]
      }
    },
    {
      "type": "Feature",
      "properties": {
        "norad_id": 31447,
        "name": "FENGYUN 1C DEB",
        "group": "fengyun-1c-debris",
        "lat": -38.36655760732242,
        "lon": -149.78597719417584,
        "alt_km": 871.3083131687999,
        "timestamp": "2025-12-21T22:41:41.742393+00:00",
        "meta_object_name": "FENGYUN 1C DEB",
        "meta_object_id": "1999-025BUK",
        "meta_epoch": "2025-12-14T21:01:38.356896",
        "meta_mean_motion": 14.2403744,
        "meta_eccentricity": 0.02304397,
        "meta_inclination": 98.9919,
        "meta_ra_of_asc_node": 30.1793,
        "meta_arg_of_pericenter": 349.1545,
        "meta_mean_anomaly": 10.471,
        "meta_ephemeris_type": 0,
        "meta_classification_type": "U",
        "meta_norad_cat_id": 31447,
        "meta_element_set_no": 999,
        "meta_rev_at_epoch": 64882,
        "meta_bstar": 0.00018562598,
        "meta_mean_motion_dot": 5.08e-06,
        "meta_mean_motion_ddot": 0,
        "tle_line1": "1 31447U 99025BUK 25348.87613839  .00000508  00000+0  18563-3 0  9999",
        "tle_line2": "2 31447  98.9919  30.1793 0230439 349.1545  10.4710 14.24037440648821"
      },
      "geometry": {
        "type": "Point",
        "coordinates": [
          -149.78597719417584,
          -38.36655760732242
        ]
      }
    }
  ]
}